0 SL-14 DEB
1 25226U 87068BD  13281.73923125  .00002140  00000-0  16283-2 0  9813
2 25226 082.5308 015.5990 0083907 246.9986 237.0690 13.91676145789144
0 SL-14 DEB
1 25226U 87068BD  13283.16235013  .00002680  00000-0  20413-2 0  9824
2 25226 082.5306 014.4521 0083794 242.8912 167.0263 13.91685595789347
0 SL-14 DEB
1 25226U 87068BD  13286.18643812  .00002508  00000-0  19089-2 0  9847
2 25226 082.5312 012.0134 0084176 234.4185 197.8599 13.91699751789760
0 SL-14 DEB
1 25226U 87068BD  13287.19371918  .00002667  00000-0  20299-2 0  9856
2 25226 082.5315 011.2014 0084373 231.6458 204.3756 13.91703432789909
0 SL-14 DEB
1 25226U 87068BD  13288.20065834  .00003418  00000-0  26043-2 0  9865
2 25226 082.5316 010.3896 0084484 228.8481 209.2191 13.91711779790042
0 SL-14 DEB
1 25226U 87068BD  13289.20399475  .00003005  00000-0  22880-2 0  9875
2 25226 082.5316 009.5807 0084599 226.0443 196.0576 13.91716587790186
0 SL-14 DEB
1 25226U 87068BD  13290.72598987  .00002997  00000-0  22805-2 0  9880
2 25226 082.5312 008.3535 0084778 221.8280 261.4399 13.91725750790393
0 SL-14 DEB
1 25226U 87068BD  13291.73355749  .00002832  00000-0  21544-2 0  9897
2 25226 082.5309 007.5411 0084902 219.0636 269.4784 13.91730781790538
0 SL-14 DEB
1 25226U 87068BD  13293.15068306  .00003121  00000-0  23744-2 0  9903
2 25226 082.5305 006.3984 0085058 215.1444 169.5196 13.91738082790734
0 SL-14 DEB
1 25226U 87068BD  13294.16789713  .00003280  00000-0  24956-2 0  9910
2 25226 082.5303 005.5780 0085143 212.3152 225.9742 13.91744117790872
0 SL-14 DEB
1 25226U 87068BD  13295.53119366  .00003269  00000-0  24870-2 0  9926
2 25226 082.5304 004.4785 0085235 208.5691 216.3602 13.91751441791062
